{
  "type": "FeatureCollection",
  "features": [
    {
      "type": "Feature",
      "properties": {
        "norad_id": 66603,
        "name": "STARLINK-36048",
        "group": "last-30-days",
        "lat": -42.976804065751544,
        "lon": 148.83952854816252,
        "alt_km": 331.8913558824934,
        "timestamp": "2025-12-04T21:36:14.653401+00:00",
        "meta_object_name": "STARLINK-36048",
        "meta_object_id": "2025-270R",
        "meta_epoch": "2025-12-03T21:40:34.816800",
        "meta_mean_motion": 15.77266061,
        "meta_eccentricity": 0.00104068,
        "meta_inclination": 42.9981,
        "meta_ra_of_asc_node": 245.2035,
        "meta_arg_of_pericenter": 263.8687,
        "meta_mean_anomaly": 96.0997,
        "meta_ephemeris_type": 0,
        "meta_classification_type": "U",
        "meta_norad_cat_id": 66603,
        "meta_element_set_no": 999,
        "meta_rev_at_epoch": 286,
        "meta_bstar": 0.0029394154,
        "meta_mean_motion_dot": 0.00531136,
        "meta_mean_motion_ddot": 0,
        "tle_line1": "1 66603U 25270R   25337.90318075  .00531136  00000+0  29394-2 0  9997",
        "tle_line2": "2 66603  42.9981 245.2035 0010406 263.8687  96.0997 15.77266061  2865"
      },
      "geometry": {
        "type": "Point",
        "coordinates": [
          148.83952854816252,
          -42.976804065751544
        ]
      }
    },
    {
      "type": "Feature",
      "properties": {
        "norad_id": 66604,
        "name": "STARLINK-35977",
        "group": "last-30-days",
        "lat": -42.92988656796888,
        "lon": 152.4666635514014,
        "alt_km": 339.45360705866005,
        "timestamp": "2025-12-04T21:36:14.653412+00:00",
        "meta_object_name": "STARLINK-35977",
        "meta_object_id": "2025-270S",
        "meta_epoch": "2025-12-03T11:01:46.597440",
        "meta_mean_motion": 15.77554299,
        "meta_eccentricity": 0.00039426,
        "meta_inclination": 42.9996,
        "meta_ra_of_asc_node": 247.8966,
        "meta_arg_of_pericenter": 347.7852,
        "meta_mean_anomaly": 12.2922,
        "meta_ephemeris_type": 0,
        "meta_classification_type": "U",
        "meta_norad_cat_id": 66604,
        "meta_element_set_no": 999,
        "meta_rev_at_epoch": 289,
        "meta_bstar": 0.00071417663,
        "meta_mean_motion_dot": 0.00123952,
        "meta_mean_motion_ddot": 0,
        "tle_line1": "1 66604U 25270S   25337.45956710  .00123952  00000+0  71418-3 0  9990",
        "tle_line2": "2 66604  42.9996 247.8966 0003942 347.7852  12.2922 15.77554299  2890"
      },
      "geometry": {
        "type": "Point",
        "coordinates": [
          152.4666635514014,
          -42.92988656796888
        ]
      }
    },
    {
      "type": "Feature",
      "properties": {
        "norad_id": 66605,
        "name": "STARLINK-36052",
        "group": "last-30-days",
        "lat": -42.49085297759486,
        "lon": 138.5978373633666,
        "alt_km": 348.1733205004357,
        "timestamp": "2025-12-04T21:36:14.653422+00:00",
        "meta_object_name": "STARLINK-36052",
        "meta_object_id": "2025-270T",
        "meta_epoch": "2025-12-04T11:21:56.539584",
        "meta_mean_motion": 15.75113305,
        "meta_eccentricity": 0.00018758,
        "meta_inclination": 42.9989,
        "meta_ra_of_asc_node": 241.7404,
        "meta_arg_of_pericenter": 67.5989,
        "meta_mean_anomaly": 292.5079,
        "meta_ephemeris_type": 0,
        "meta_classification_type": "U",
        "meta_norad_cat_id": 66605,
        "meta_element_set_no": 999,
        "meta_rev_at_epoch": 305,
        "meta_bstar": 0.0017267182,
        "meta_mean_motion_dot": 0.00274463,
        "meta_mean_motion_ddot": 0,
        "tle_line1": "1 66605U 25270T   25338.47357106  .00274463  00000+0  17267-2 0  9993",
        "tle_line2": "2 66605  42.9989 241.7404 0001875  67.5989 292.5079 15.75113305  3056"
      },
      "geometry": {
        "type": "Point",
        "coordinates": [
          138.5978373633666,
          -42.49085297759486
        ]
      }
    },
    {
      "type": "Feature",
      "properties": {
        "norad_id": 66606,
        "name": "STARLINK-36063",
        "group": "last-30-days",
        "lat": -35.09752655555158,
        "lon": 108.17244224863444,
        "alt_km": 370.26042767403123,
        "timestamp": "2025-12-04T21:36:14.653432+00:00",
        "meta_object_name": "STARLINK-36063",
        "meta_object_id": "2025-270U",
        "meta_epoch": "2025-12-04T02:13:26.401152",
        "meta_mean_motion": 15.70932101,
        "meta_eccentricity": 0.0031868,
        "meta_inclination": 42.9978,
        "meta_ra_of_asc_node": 244.043,
        "meta_arg_of_pericenter": 182.8429,
        "meta_mean_anomaly": 177.2262,
        "meta_ephemeris_type": 0,
        "meta_classification_type": "U",
        "meta_norad_cat_id": 66606,
        "meta_element_set_no": 999,
        "meta_rev_at_epoch": 299,
        "meta_bstar": -0.056770882,
        "meta_mean_motion_dot": -0.06178149,
        "meta_mean_motion_ddot": 0,
        "tle_line1": "1 66606U 25270U   25338.09266668 -.06178149  00000+0 -56771-1 0  9998",
        "tle_line2": "2 66606  42.9978 244.0430 0031868 182.8429 177.2262 15.70932101  2998"
      },
      "geometry": {
        "type": "Point",
        "coordinates": [
          108.17244224863444,
          -35.09752655555158
        ]
      }
    },
    {
      "type": "Feature",
      "properties": {
        "norad_id": 66607,
        "name": "STARLINK-35993",
        "group": "last-30-days",
        "lat": -42.64066920189318,
        "lon": 140.36333803405478,
        "alt_km": 348.09623370384725,
        "timestamp": "2025-12-04T21:36:14.653442+00:00",
        "meta_object_name": "STARLINK-35993",
        "meta_object_id": "2025-270V",
        "meta_epoch": "2025-12-04T00:42:13.697280",
        "meta_mean_motion": 15.75244198,
        "meta_eccentricity": 0.00015476,
        "meta_inclination": 42.9984,
        "meta_ra_of_asc_node": 244.4293,
        "meta_arg_of_pericenter": 280.1184,
        "meta_mean_anomaly": 79.9511,
        "meta_ephemeris_type": 0,
        "meta_classification_type": "U",
        "meta_norad_cat_id": 66607,
        "meta_element_set_no": 999,
        "meta_rev_at_epoch": 288,
        "meta_bstar": -0.0024272821,
        "meta_mean_motion_dot": -0.00361066,
        "meta_mean_motion_ddot": 0,
        "tle_line1": "1 66607U 25270V   25338.02932520 -.00361066  00000+0 -24273-2 0  9998",
        "tle_line2": "2 66607  42.9984 244.4293 0001547 280.1184  79.9511 15.75244198  2888"
      },
      "geometry": {
        "type": "Point",
        "coordinates": [
          140.36333803405478,
          -42.64066920189318
        ]
      }
    },
    {
      "type": "Feature",
      "properties": {
        "norad_id": 66608,
        "name": "STARLINK-36036",
        "group": "last-30-days",
        "lat": -42.95666743422099,
        "lon": 146.9548607851617,
        "alt_km": 346.03975230168544,
        "timestamp": "2025-12-04T21:36:14.653454+00:00",
        "meta_object_name": "STARLINK-36036",
        "meta_object_id": "2025-270W",
        "meta_epoch": "2025-12-04T05:15:11.882592",
        "meta_mean_motion": 15.75206645,
        "meta_eccentricity": 0.00013364,
        "meta_inclination": 42.9982,
        "meta_ra_of_asc_node": 243.2689,
        "meta_arg_of_pericenter": 286.6159,
        "meta_mean_anomaly": 73.4563,
        "meta_ephemeris_type": 0,
        "meta_classification_type": "U",
        "meta_norad_cat_id": 66608,
        "meta_element_set_no": 999,
        "meta_rev_at_epoch": 285,
        "meta_bstar": 0.00089241727,
        "meta_mean_motion_dot": 0.00139923,
        "meta_mean_motion_ddot": 0,
        "tle_line1": "1 66608U 25270W   25338.21888753  .00139923  00000+0  89242-3 0  9999",
        "tle_line2": "2 66608  42.9982 243.2689 0001336 286.6159  73.4563 15.75206645  2850"
      },
      "geometry": {
        "type": "Point",
        "coordinates": [
          146.9548607851617,
          -42.95666743422099
        ]
      }
    },
    {
      "type": "Feature",
      "properties": {
        "norad_id": 66609,
        "name": "STARLINK-36034",
        "group": "last-30-days",
        "lat": -42.91344045366544,
        "lon": 152.94645051267025,
        "alt_km": 338.9193346750508,
        "timestamp": "2025-12-04T21:36:14.653464+00:00",
        "meta_object_name": "STARLINK-36034",
        "meta_object_id": "2025-270X",
        "meta_epoch": "2025-12-04T15:53:27.072960",
        "meta_mean_motion": 15.76402472,
        "meta_eccentricity": 0.00064342,
        "meta_inclination": 42.998,
        "meta_ra_of_asc_node": 240.5714,
        "meta_arg_of_pericenter": 250.7584,
        "meta_mean_anomaly": 109.2589,
        "meta_ephemeris_type": 0,
        "meta_classification_type": "U",
        "meta_norad_cat_id": 66609,
        "meta_element_set_no": 999,
        "meta_rev_at_epoch": 292,
        "meta_bstar": 0.0046786247,
        "meta_mean_motion_dot": 0.00843446,
        "meta_mean_motion_ddot": 0,
        "tle_line1": "1 66609U 25270X   25338.66211890  .00843446  00000+0  46786-2 0  9998",
        "tle_line2": "2 66609  42.9980 240.5714 0006434 250.7584 109.2589 15.76402472  2927"
      },
      "geometry": {
        "type": "Point",
        "coordinates": [
          152.94645051267025,
          -42.91344045366544
        ]
      }
    }
  ]
}